ONEWEB-0665             
1 55825U 23029AF  24306.80979072  .00000186  00000+0  46668-3 0  9995
2 55825  87.9031  47.5164 0001968  95.9183 264.2171 13.14503982 81582
ONEWEB-0666             
1 55826U 23029AG  24306.76703292 -.00000422  00000+0 -10692-2 0  9992
2 55826  87.9300  32.3274 0001447 111.5013 248.6274 13.20770480 82953
ONEWEB-0667             
1 55827U 23029AH  24306.76073758 -.00002797  00000+0 -69128-2 0  9995
2 55827  87.9301  32.2618 0002116  98.0289 262.1085 13.20784496 82946
ONEWEB-0669             
1 55828U 23029AJ  24306.75599959  .00000058  00000+0  11176-3 0  9998
2 55828  87.9298  32.2998 0001635 126.5688 233.5596 13.20769579 82942
ONEWEB-0670             
1 55829U 23029AK  24306.78757010  .00000033  00000+0  55055-4 0  9994
2 55829  87.9030  47.5313 0002143 106.8807 253.2558 13.14501344 81602
ONEWEB-0671             
1 55830U 23029AL  24306.85853786 -.00000044  00000+0 -14162-3 0  9998
2 55830  87.9176  62.7683 0001926 102.7782 257.3566 13.19724127 80771
ONEWEB-0672             
1 55831U 23029AM  24306.75126223  .00000046  00000+0  81102-4 0  9996
2 55831  87.9299  32.2850 0001421 105.4695 254.6596 13.20768738 82941
ONEWEB-0673             
1 55832U 23029AN  24306.83482612 -.00003153  00000+0 -79087-2 0  9994
2 55832  87.9170  62.7386 0001615  91.0735 269.0583 13.19741261 80777
